{
  "type": "FeatureCollection",
  "features": [
    {
      "type": "Feature",
      "properties": {
        "norad_id": 66597,
        "name": "STARLINK-35820",
        "group": "last-30-days",
        "lat": 11.717558034371631,
        "lon": -112.37222384369129,
        "alt_km": 326.96739438950226,
        "timestamp": "2025-12-05T14:45:14.102392+00:00",
        "meta_object_name": "STARLINK-35820",
        "meta_object_id": "2025-270K",
        "meta_epoch": "2025-12-04T15:54:56.043360",
        "meta_mean_motion": 15.78717724,
        "meta_eccentricity": 0.0019975,
        "meta_inclination": 43.0025,
        "meta_ra_of_asc_node": 240.58,
        "meta_arg_of_pericenter": 286.3097,
        "meta_mean_anomaly": 73.5577,
        "meta_ephemeris_type": 0,
        "meta_classification_type": "U",
        "meta_norad_cat_id": 66597,
        "meta_element_set_no": 999,
        "meta_rev_at_epoch": 319,
        "meta_bstar": 0.0039061,
        "meta_mean_motion_dot": 0.00781523,
        "meta_mean_motion_ddot": 0,
        "tle_line1": "1 66597U 25270K   25338.66314865  .00781523  00000+0  39061-2 0  9995",
        "tle_line2": "2 66597  43.0025 240.5800 0019975 286.3097  73.5577 15.78717724  3190"
      },
      "geometry": {
        "type": "Point",
        "coordinates": [
          -112.37222384369129,
          11.717558034371631
        ]
      }
    },
    {
      "type": "Feature",
      "properties": {
        "norad_id": 66598,
        "name": "STARLINK-35981",
        "group": "last-30-days",
        "lat": -9.388130146931735,
        "lon": -135.37636504492056,
        "alt_km": 347.97123128740805,
        "timestamp": "2025-12-05T14:45:14.102402+00:00",
        "meta_object_name": "STARLINK-35981",
        "meta_object_id": "2025-270L",
        "meta_epoch": "2025-12-04T15:58:16.578624",
        "meta_mean_motion": 15.7542585,
        "meta_eccentricity": 0.0005401,
        "meta_inclination": 42.9991,
        "meta_ra_of_asc_node": 240.597,
        "meta_arg_of_pericenter": 302.4449,
        "meta_mean_anomaly": 57.5898,
        "meta_ephemeris_type": 0,
        "meta_classification_type": "U",
        "meta_norad_cat_id": 66598,
        "meta_element_set_no": 999,
        "meta_rev_at_epoch": 292,
        "meta_bstar": -0.0087258,
        "meta_mean_motion_dot": -0.01210212,
        "meta_mean_motion_ddot": 0,
        "tle_line1": "1 66598U 25270L   25338.66546966 -.01210212  00000+0 -87258-2 0  9991",
        "tle_line2": "2 66598  42.9991 240.5970 0005401 302.4449  57.5898 15.75425850  2920"
      },
      "geometry": {
        "type": "Point",
        "coordinates": [
          -135.37636504492056,
          -9.388130146931735
        ]
      }
    },
    {
      "type": "Feature",
      "properties": {
        "norad_id": 66599,
        "name": "STARLINK-35930",
        "group": "last-30-days",
        "lat": -11.15303022793416,
        "lon": -137.36489337065694,
        "alt_km": 349.4102667827874,
        "timestamp": "2025-12-05T14:45:14.102412+00:00",
        "meta_object_name": "STARLINK-35930",
        "meta_object_id": "2025-270M",
        "meta_epoch": "2025-12-04T00:45:37.693728",
        "meta_mean_motion": 15.75348253,
        "meta_eccentricity": 0.00019861,
        "meta_inclination": 42.9984,
        "meta_ra_of_asc_node": 244.4479,
        "meta_arg_of_pericenter": 267.8069,
        "meta_mean_anomaly": 92.2573,
        "meta_ephemeris_type": 0,
        "meta_classification_type": "U",
        "meta_norad_cat_id": 66599,
        "meta_element_set_no": 999,
        "meta_rev_at_epoch": 298,
        "meta_bstar": -0.0039524111,
        "meta_mean_motion_dot": -0.00575796,
        "meta_mean_motion_ddot": 0,
        "tle_line1": "1 66599U 25270M   25338.03168627 -.00575796  00000+0 -39524-2 0  9990",
        "tle_line2": "2 66599  42.9984 244.4479 0001986 267.8069  92.2573 15.75348253  2989"
      },
      "geometry": {
        "type": "Point",
        "coordinates": [
          -137.36489337065694,
          -11.15303022793416
        ]
      }
    },
    {
      "type": "Feature",
      "properties": {
        "norad_id": 66600,
        "name": "STARLINK-35980",
        "group": "last-30-days",
        "lat": 14.156834652823727,
        "lon": -109.53712247144392,
        "alt_km": 318.686499639517,
        "timestamp": "2025-12-05T14:45:14.102424+00:00",
        "meta_object_name": "STARLINK-35980",
        "meta_object_id": "2025-270N",
        "meta_epoch": "2025-12-04T03:46:22.938816",
        "meta_mean_motion": 15.79349544,
        "meta_eccentricity": 0.00188251,
        "meta_inclination": 43.0002,
        "meta_ra_of_asc_node": 243.6684,
        "meta_arg_of_pericenter": 318.1688,
        "meta_mean_anomaly": 41.7743,
        "meta_ephemeris_type": 0,
        "meta_classification_type": "U",
        "meta_norad_cat_id": 66600,
        "meta_element_set_no": 999,
        "meta_rev_at_epoch": 290,
        "meta_bstar": 0.0025460562,
        "meta_mean_motion_dot": 0.00507436,
        "meta_mean_motion_ddot": 0,
        "tle_line1": "1 66600U 25270N   25338.15720994  .00507436  00000+0  25461-2 0  9996",
        "tle_line2": "2 66600  43.0002 243.6684 0018825 318.1688  41.7743 15.79349544  2909"
      },
      "geometry": {
        "type": "Point",
        "coordinates": [
          -109.53712247144392,
          14.156834652823727
        ]
      }
    },
    {
      "type": "Feature",
      "properties": {
        "norad_id": 66601,
        "name": "STARLINK-35978",
        "group": "last-30-days",
        "lat": -6.951177533839162,
        "lon": -132.683820055864,
        "alt_km": 350.1948255630805,
        "timestamp": "2025-12-05T14:45:14.102436+00:00",
        "meta_object_name": "STARLINK-35978",
        "meta_object_id": "2025-270P",
        "meta_epoch": "2025-12-04T02:15:56.284416",
        "meta_mean_motion": 15.75298164,
        "meta_eccentricity": 0.00071106,
        "meta_inclination": 42.9977,
        "meta_ra_of_asc_node": 244.0577,
        "meta_arg_of_pericenter": 214.9985,
        "meta_mean_anomaly": 145.0417,
        "meta_ephemeris_type": 0,
        "meta_classification_type": "U",
        "meta_norad_cat_id": 66601,
        "meta_element_set_no": 999,
        "meta_rev_at_epoch": 283,
        "meta_bstar": -0.0021837609,
        "meta_mean_motion_dot": -0.00327668,
        "meta_mean_motion_ddot": 0,
        "tle_line1": "1 66601U 25270P   25338.09440144 -.00327668  00000+0 -21838-2 0  9999",
        "tle_line2": "2 66601  42.9977 244.0577 0007110 214.9985 145.0417 15.75298164  2838"
      },
      "geometry": {
        "type": "Point",
        "coordinates": [
          -132.683820055864,
          -6.951177533839162
        ]
      }
    },
    {
      "type": "Feature",
      "properties": {
        "norad_id": 66602,
        "name": "STARLINK-36050",
        "group": "last-30-days",
        "lat": 10.264215801547929,
        "lon": 43.33716107572072,
        "alt_km": 155.3090567062436,
        "timestamp": "2025-12-05T14:45:14.102447+00:00",
        "meta_object_name": "STARLINK-36050",
        "meta_object_id": "2025-270Q",
        "meta_epoch": "2025-12-03T23:11:57.245856",
        "meta_mean_motion": 15.81066635,
        "meta_eccentricity": 0.00264193,
        "meta_inclination": 42.9973,
        "meta_ra_of_asc_node": 244.8203,
        "meta_arg_of_pericenter": 271.6989,
        "meta_mean_anomaly": 88.0856,
        "meta_ephemeris_type": 0,
        "meta_classification_type": "U",
        "meta_norad_cat_id": 66602,
        "meta_element_set_no": 999,
        "meta_rev_at_epoch": 287,
        "meta_bstar": 0.03628424,
        "meta_mean_motion_dot": 0.09497794,
        "meta_mean_motion_ddot": 0,
        "tle_line1": "1 66602U 25270Q   25337.96663479  .09497794  00000+0  36284-1 0  9998",
        "tle_line2": "2 66602  42.9973 244.8203 0026419 271.6989  88.0856 15.81066635  2876"
      },
      "geometry": {
        "type": "Point",
        "coordinates": [
          43.33716107572072,
          10.264215801547929
        ]
      }
    },
    {
      "type": "Feature",
      "properties": {
        "norad_id": 66603,
        "name": "STARLINK-36048",
        "group": "last-30-days",
        "lat": 10.749961801373345,
        "lon": -113.47402093404379,
        "alt_km": 332.51381923813915,
        "timestamp": "2025-12-05T14:45:14.102457+00:00",
        "meta_object_name": "STARLINK-36048",
        "meta_object_id": "2025-270R",
        "meta_epoch": "2025-12-03T21:40:34.816800",
        "meta_mean_motion": 15.77266061,
        "meta_eccentricity": 0.00104068,
        "meta_inclination": 42.9981,
        "meta_ra_of_asc_node": 245.2035,
        "meta_arg_of_pericenter": 263.8687,
        "meta_mean_anomaly": 96.0997,
        "meta_ephemeris_type": 0,
        "meta_classification_type": "U",
        "meta_norad_cat_id": 66603,
        "meta_element_set_no": 999,
        "meta_rev_at_epoch": 286,
        "meta_bstar": 0.0029394154,
        "meta_mean_motion_dot": 0.00531136,
        "meta_mean_motion_ddot": 0,
        "tle_line1": "1 66603U 25270R   25337.90318075  .00531136  00000+0  29394-2 0  9997",
        "tle_line2": "2 66603  42.9981 245.2035 0010406 263.8687  96.0997 15.77266061  2865"
      },
      "geometry": {
        "type": "Point",
        "coordinates": [
          -113.47402093404379,
          10.749961801373345
        ]
      }
    }
  ]
}